start=new Date('2022-09-03T00:00:00.000Z').valueOf();
sats=[{"SITE":"AFETR","FILE":"3555599","EPHEMERIS_TYPE":"0","MEAN_ELEMENT_THEORY":"SGP4","EPOCH":"2022-09-02T14:01:01.726464","NORAD_CAT_ID":"48381","MEAN_MOTION_DOT":"0.00000984","TLE_LINE2":"2 48381  53.0569 356.1970 0001213  94.8942 265.2185 15.06401135 73621","CLASSIFICATION_TYPE":"U","ECCENTRICITY":"0.00012130","PERIAPSIS":"546.370","REV_AT_EPOCH":"7362","OBJECT_TYPE":"PAYLOAD","GP_ID":"211589218","MEAN_ANOMALY":"265.2185","DECAY_DATE":null,"RA_OF_ASC_NODE":"356.1970","COUNTRY_CODE":"US","CENTER_NAME":"EARTH","REF_FRAME":"TEME","TLE_LINE1":"1 48381U 21038AE  22245.58404776  .00000984  00000-0  84934-4 0  9997","MEAN_MOTION":"15.06401135","RCS_SIZE":"LARGE","TIME_SYSTEM":"UTC","APOAPSIS":"548.050","PERIOD":"95.592","ARG_OF_PERICENTER":"94.8942","OBJECT_ID":"2021-038AE","OBJECT_NAME":"STARLINK-2630","INCLINATION":"53.0569","MEAN_MOTION_DDOT":"0.0000000000000","LAUNCH_DATE":"2021-05-04","ELEMENT_SET_NO":"999","SEMIMAJOR_AXIS":"6925.345","BSTAR":"0.00008493400000"},{"SEMIMAJOR_AXIS":"6925.347","BSTAR":"0.00004297100000","MEAN_MOTION_DDOT":"0.0000000000000","ELEMENT_SET_NO":"999","LAUNCH_DATE":"2021-05-04","OBJECT_ID":"2021-038AF","OBJECT_NAME":"STARLINK-2585","INCLINATION":"53.0553","RCS_SIZE":"LARGE","PERIOD":"95.592","APOAPSIS":"548.156","TIME_SYSTEM":"UTC","ARG_OF_PERICENTER":"85.6647","CENTER_NAME":"EARTH","REF_FRAME":"TEME","TLE_LINE1":"1 48382U 21038AF  22245.71305646  .00000359  00000-0  42971-4 0  9990","MEAN_MOTION":"15.06400643","OBJECT_TYPE":"PAYLOAD","GP_ID":"211587979","REV_AT_EPOCH":"7364","PERIAPSIS":"546.268","DECAY_DATE":null,"RA_OF_ASC_NODE":"355.6307","MEAN_ANOMALY":"274.4498","COUNTRY_CODE":"US","MEAN_ELEMENT_THEORY":"SGP4","EPOCH":"2022-09-02T17:06:48.078144","NORAD_CAT_ID":"48382","MEAN_MOTION_DOT":"0.00000359","TLE_LINE2":"2 48382  53.0553 355.6307 0001363  85.6647 274.4498 15.06400643 73643","ECCENTRICITY":"0.00013630","CLASSIFICATION_TYPE":"U","SITE":"AFETR","EPHEMERIS_TYPE":"0","FILE":"3555599"},{"MEAN_MOTION":"15.06391405","TLE_LINE1":"1 48383U 21038AG  22245.57668160 -.00000692  00000-0 -27590-4 0  9990","REF_FRAME":"TEME","CENTER_NAME":"EARTH","COUNTRY_CODE":"US","MEAN_ANOMALY":"280.3721","DECAY_DATE":null,"RA_OF_ASC_NODE":"356.2413","PERIAPSIS":"546.310","REV_AT_EPOCH":"7484","OBJECT_TYPE":"PAYLOAD","GP_ID":"211556440","CLASSIFICATION_TYPE":"U","ECCENTRICITY":"0.00013430","TLE_LINE2":"2 48383  53.0555 356.2413 0001343  79.7419 280.3721 15.06391405 74843","MEAN_MOTION_DOT":"-0.00000692","NORAD_CAT_ID":"48383","MEAN_ELEMENT_THEORY":"SGP4","EPOCH":"2022-09-02T13:50:25.290240","FILE":"3555279","EPHEMERIS_TYPE":"0","SITE":"AFETR","BSTAR":"-0.00002759000000","SEMIMAJOR_AXIS":"6925.375","LAUNCH_DATE":"2021-05-04","ELEMENT_SET_NO":"999","MEAN_MOTION_DDOT":"0.0000000000000","INCLINATION":"53.0555","OBJECT_ID":"2021-038AG","OBJECT_NAME":"STARLINK-2599","ARG_OF_PERICENTER":"79.7419","APOAPSIS":"548.170","TIME_SYSTEM":"UTC","PERIOD":"95.593","RCS_SIZE":"LARGE"},{"LAUNCH_DATE":"2021-05-04","ELEMENT_SET_NO":"999","MEAN_MOTION_DDOT":"0.0000000000000","SEMIMAJOR_AXIS":"6925.338","BSTAR":"0.00008750300000","ARG_OF_PERICENTER":"88.6261","RCS_SIZE":"LARGE","APOAPSIS":"548.044","TIME_SYSTEM":"UTC","PERIOD":"95.592","INCLINATION":"53.0567","OBJECT_NAME":"STARLINK-2601","OBJECT_ID":"2021-038AH","MEAN_ANOMALY":"271.4867","DECAY_DATE":null,"RA_OF_ASC_NODE":"355.6562","COUNTRY_CODE":"US","REV_AT_EPOCH":"7486","PERIAPSIS":"546.361","GP_ID":"211589479","OBJECT_TYPE":"PAYLOAD","MEAN_MOTION":"15.06403575","CENTER_NAME":"EARTH","REF_FRAME":"TEME","TLE_LINE1":"1 48384U 21038AH  22245.70568340  .00001022  00000-0  87503-4 0  9991","SITE":"AFETR","FILE":"3555599","EPHEMERIS_TYPE":"0","TLE_LINE2":"2 48384  53.0567 355.6562 0001215  88.6261 271.4867 15.06403575 74863","CLASSIFICATION_TYPE":"U","ECCENTRICITY":"0.00012150","EPOCH":"2022-09-02T16:56:11.045760","MEAN_ELEMENT_THEORY":"SGP4","NORAD_CAT_ID":"48384","MEAN_MOTION_DOT":"0.00001022"},{"SITE":"AFETR","EPHEMERIS_TYPE":"0","FILE":"3555008","TLE_LINE2":"2 48385  53.0562 356.2694 0001203  82.8166 277.2960 15.06406324 74200","ECCENTRICITY":"0.00012030","CLASSIFICATION_TYPE":"U","NORAD_CAT_ID":"48385","EPOCH":"2022-09-02T13:39:47.805984","MEAN_ELEMENT_THEORY":"SGP4","MEAN_MOTION_DOT":"0.00000967","RA_OF_ASC_NODE":"356.2694","DECAY_DATE":null,"MEAN_ANOMALY":"277.2960","COUNTRY_CODE":"US","OBJECT_TYPE":"PAYLOAD","GP_ID":"211527925","PERIAPSIS":"546.361","REV_AT_EPOCH":"7420","MEAN_MOTION":"15.06406324","CENTER_NAME":"EARTH","REF_FRAME":"TEME","TLE_LINE1":"1 48385U 21038AJ  22245.56930331  .00000967  00000-0  83794-4 0  9994","ARG_OF_PERICENTER":"82.8166","RCS_SIZE":"LARGE","PERIOD":"95.592","TIME_SYSTEM":"UTC","APOAPSIS":"548.027","INCLINATION":"53.0562","OBJECT_NAME":"STARLINK-2598","OBJECT_ID":"2021-038AJ","LAUNCH_DATE":"2021-05-04","ELEMENT_SET_NO":"999","MEAN_MOTION_DDOT":"0.0000000000000","SEMIMAJOR_AXIS":"6925.329","BSTAR":"0.00008379400000"},{"PERIAPSIS":"546.215","REV_AT_EPOCH":"7370","GP_ID":"211588479","OBJECT_TYPE":"PAYLOAD","COUNTRY_CODE":"US","MEAN_ANOMALY":"275.8379","DECAY_DATE":null,"RA_OF_ASC_NODE":"350.7373","TLE_LINE1":"1 48386U 21038AK  22245.68956801  .00001470  00000-0  11755-3 0  9995","REF_FRAME":"TEME","CENTER_NAME":"EARTH","MEAN_MOTION":"15.06403365","FILE":"3555599","EPHEMERIS_TYPE":"0","SITE":"AFETR","MEAN_MOTION_DOT":"0.00001470","EPOCH":"2022-09-02T16:32:58.676064","NORAD_CAT_ID":"48386","MEAN_ELEMENT_THEORY":"SGP4","CLASSIFICATION_TYPE":"U","ECCENTRICITY":"0.00014270","TLE_LINE2":"2 48386  53.0569 350.7373 0001427  84.2773 275.8379 15.06403365 73703","MEAN_MOTION_DDOT":"0.0000000000000","ELEMENT_SET_NO":"999","LAUNCH_DATE":"2021-05-04","BSTAR":"0.00011755000000","SEMIMAJOR_AXIS":"6925.338","APOAPSIS":"548.191","TIME_SYSTEM":"UTC","PERIOD":"95.592","RCS_SIZE":"LARGE","ARG_OF_PERICENTER":"84.2773","OBJECT_NAME":"STARLINK-2606","OBJECT_ID":"2021-038AK","INCLINATION":"53.0569"},{"FILE":"3555599","EPHEMERIS_TYPE":"0","SITE":"AFETR","MEAN_MOTION_DOT":"0.00000032","NORAD_CAT_ID":"48387","MEAN_ELEMENT_THEORY":"SGP4","EPOCH":"2022-09-02T17:15:25.930368","CLASSIFICATION_TYPE":"U","ECCENTRICITY":"0.00013270","TLE_LINE2":"2 48387  53.0572 350.5664 0001327  78.5836 281.5302 15.06392703 73718","PERIAPSIS":"546.317","REV_AT_EPOCH":"7371","GP_ID":"211588728","OBJECT_TYPE":"PAYLOAD","COUNTRY_CODE":"US","MEAN_ANOMALY":"281.5302","RA_OF_ASC_NODE":"350.5664","DECAY_DATE":null,"REF_FRAME":"TEME","TLE_LINE1":"1 48387U 21038AL  22245.71905012  .00000032  00000-0  21064-4 0  9996","CENTER_NAME":"EARTH","MEAN_MOTION":"15.06392703","TIME_SYSTEM":"UTC","APOAPSIS":"548.155","PERIOD":"95.593","RCS_SIZE":"MEDIUM","ARG_OF_PERICENTER":"78.5836","OBJECT_NAME":"STARLINK-2600","OBJECT_ID":"2021-038AL","INCLINATION":"53.0572","MEAN_MOTION_DDOT":"0.0000000000000","LAUNCH_DATE":"2021-05-04","ELEMENT_SET_NO":"999","BSTAR":"0.00002106400000","SEMIMAJOR_AXIS":"6925.371"},{"RA_OF_ASC_NODE":"350.3125","DECAY_DATE":null,"MEAN_ANOMALY":"278.5704","COUNTRY_CODE":"US","OBJECT_TYPE":"PAYLOAD","GP_ID":"211588980","REV_AT_EPOCH":"7372","PERIAPSIS":"546.402","MEAN_MOTION":"15.06401458","CENTER_NAME":"EARTH","TLE_LINE1":"1 48388U 21038AM  22245.78171228  .00000941  00000-0  82043-4 0  9991","REF_FRAME":"TEME","SITE":"AFETR","EPHEMERIS_TYPE":"0","FILE":"3555599","TLE_LINE2":"2 48388  53.0565 350.3125 0001166  81.5417 278.5704 15.06401458 73722","ECCENTRICITY":"0.00011660","CLASSIFICATION_TYPE":"U","EPOCH":"2022-09-02T18:45:39.940992","NORAD_CAT_ID":"48388","MEAN_ELEMENT_THEORY":"SGP4","MEAN_MOTION_DOT":"0.00000941","ELEMENT_SET_NO":"999","LAUNCH_DATE":"2021-05-04","MEAN_MOTION_DDOT":"0.0000000000000","SEMIMAJOR_AXIS":"6925.344","BSTAR":"0.00008204300000","ARG_OF_PERICENTER":"81.5417","RCS_SIZE":"LARGE","PERIOD":"95.592","TIME_SYSTEM":"UTC","APOAPSIS":"548.017","INCLINATION":"53.0565","OBJECT_NAME":"STARLINK-2594","OBJECT_ID":"2021-038AM"},{"BSTAR":"-0.00002470500000","SEMIMAJOR_AXIS":"6925.381","MEAN_MOTION_DDOT":"0.0000000000000","LAUNCH_DATE":"2021-05-04","ELEMENT_SET_NO":"999","OBJECT_ID":"2021-038AN","OBJECT_NAME":"STARLINK-1904","INCLINATION":"53.0567","TIME_SYSTEM":"UTC","APOAPSIS":"548.115","PERIOD":"95.593","RCS_SIZE":"LARGE","ARG_OF_PERICENTER":"88.4385","REF_FRAME":"TEME","TLE_LINE1":"1 48389U 21038AN  22245.83468149 -.00000649  00000-0 -24705-4 0  9997","CENTER_NAME":"EARTH","MEAN_MOTION":"15.06389406","REV_AT_EPOCH":"7379","PERIAPSIS":"546.377","GP_ID":"211589219","OBJECT_TYPE":"PAYLOAD","COUNTRY_CODE":"US","MEAN_ANOMALY":"271.6748","RA_OF_ASC_NODE":"345.0684","DECAY_DATE":null,"MEAN_MOTION_DOT":"-0.00000649","NORAD_CAT_ID":"48389","MEAN_ELEMENT_THEORY":"SGP4","EPOCH":"2022-09-02T20:01:56.480736","CLASSIFICATION_TYPE":"U","ECCENTRICITY":"0.00012550","TLE_LINE2":"2 48389  53.0567 345.0684 0001255  88.4385 271.6748 15.06389406 73792","FILE":"3555599","EPHEMERIS_TYPE":"0","SITE":"AFETR"},{"OBJECT_NAME":"STARLINK-2586","OBJECT_ID":"2021-038AP","INCLINATION":"53.0564","PERIOD":"95.592","TIME_SYSTEM":"UTC","APOAPSIS":"548.074","RCS_SIZE":"LARGE","ARG_OF_PERICENTER":"81.4997","BSTAR":"-0.00004896800000","SEMIMAJOR_AXIS":"6925.346","MEAN_MOTION_DDOT":"0.0000000000000","ELEMENT_SET_NO":"999","LAUNCH_DATE":"2021-05-04","MEAN_MOTION_DOT":"-0.00001011","MEAN_ELEMENT_THEORY":"SGP4","EPOCH":"2022-09-02T18:22:26.429952","NORAD_CAT_ID":"48390","ECCENTRICITY":"0.00012450","CLASSIFICATION_TYPE":"U","TLE_LINE2":"2 48390  53.0564 345.3845 0001245  81.4997 278.6134 15.06400687 75001","EPHEMERIS_TYPE":"0","FILE":"3555599","SITE":"AFETR","TLE_LINE1":"1 48390U 21038AP  22245.76558368 -.00001011  00000-0 -48968-4 0  9995","REF_FRAME":"TEME","CENTER_NAME":"EARTH","MEAN_MOTION":"15.06400687","OBJECT_TYPE":"PAYLOAD","GP_ID":"211587980","REV_AT_EPOCH":"7500","PERIAPSIS":"546.349","COUNTRY_CODE":"US","RA_OF_ASC_NODE":"345.3845","DECAY_DATE":null,"MEAN_ANOMALY":"278.6134"}];
